O3B MPOWER F1           
1 54755U 22174A   23353.08247723 -.00000013  00000+0  00000+0 0  9994
2 54755   0.0560  16.1447 0005941 265.0502 153.2964  5.00118318 19783
